{
  "type": "FeatureCollection",
  "features": [
    {
      "type": "Feature",
      "properties": {
        "norad_id": 35839,
        "name": "COSMOS 2251 DEB",
        "group": "cosmos-2251-debris",
        "lat": -33.282764262238125,
        "lon": -71.76125400250984,
        "alt_km": 395.8268516221988,
        "timestamp": "2025-12-23T22:42:33.382547+00:00",
        "meta_object_name": "COSMOS 2251 DEB",
        "meta_object_id": "1993-036ATM",
        "meta_epoch": "2025-12-22T13:00:04.597632",
        "meta_mean_motion": 15.59480867,
        "meta_eccentricity": 0.0007508,
        "meta_inclination": 74.2046,
        "meta_ra_of_asc_node": 302.0435,
        "meta_arg_of_pericenter": 136.7735,
        "meta_mean_anomaly": 223.4075,
        "meta_ephemeris_type": 0,
        "meta_classification_type": "U",
        "meta_norad_cat_id": 35839,
        "meta_element_set_no": 999,
        "meta_rev_at_epoch": 88720,
        "meta_bstar": 0.0064439432,
        "meta_mean_motion_dot": 0.0054719,
        "meta_mean_motion_ddot": 0,
        "tle_line1": "1 35839U 93036ATM 25356.54171988  .00547190  00000+0  64439-2 0  9996",
        "tle_line2": "2 35839  74.2046 302.0435 0007508 136.7735 223.4075 15.59480867887203"
      },
      "geometry": {
        "type": "Point",
        "coordinates": [
          -71.76125400250984,
          -33.282764262238125
        ]
      }
    },
    {
      "type": "Feature",
      "properties": {
        "norad_id": 35840,
        "name": "COSMOS 2251 DEB",
        "group": "cosmos-2251-debris",
        "lat": 16.029849777930718,
        "lon": 142.16240867132402,
        "alt_km": 687.6202543741801,
        "timestamp": "2025-12-23T22:42:33.382557+00:00",
        "meta_object_name": "COSMOS 2251 DEB",
        "meta_object_id": "1993-036ATN",
        "meta_epoch": "2025-12-12T04:26:56.474304",
        "meta_mean_motion": 14.37821687,
        "meta_eccentricity": 0.01162768,
        "meta_inclination": 73.9307,
        "meta_ra_of_asc_node": 159.2062,
        "meta_arg_of_pericenter": 61.7798,
        "meta_mean_anomaly": 299.5037,
        "meta_ephemeris_type": 0,
        "meta_classification_type": "U",
        "meta_norad_cat_id": 35840,
        "meta_element_set_no": 999,
        "meta_rev_at_epoch": 85283,
        "meta_bstar": 0.0026691111,
        "meta_mean_motion_dot": 8.683e-05,
        "meta_mean_motion_ddot": 0,
        "tle_line1": "1 35840U 93036ATN 25346.18537586  .00008683  00000+0  26691-2 0  9994",
        "tle_line2": "2 35840  73.9307 159.2062 0116276  61.7798 299.5037 14.37821687852835"
      },
      "geometry": {
        "type": "Point",
        "coordinates": [
          142.16240867132402,
          16.029849777930718
        ]
      }
    },
    {
      "type": "Feature",
      "properties": {
        "norad_id": 35883,
        "name": "COSMOS 2251 DEB",
        "group": "cosmos-2251-debris",
        "lat": 11.045535037470243,
        "lon": -134.2549077246181,
        "alt_km": 665.8392509704017,
        "timestamp": "2025-12-23T22:42:33.382567+00:00",
        "meta_object_name": "COSMOS 2251 DEB",
        "meta_object_id": "1993-036ATW",
        "meta_epoch": "2025-12-16T04:41:35.789568",
        "meta_mean_motion": 14.50615193,
        "meta_eccentricity": 0.00835028,
        "meta_inclination": 74.0253,
        "meta_ra_of_asc_node": 63.5249,
        "meta_arg_of_pericenter": 192.1269,
        "meta_mean_anomaly": 197.0315,
        "meta_ephemeris_type": 0,
        "meta_classification_type": "U",
        "meta_norad_cat_id": 35883,
        "meta_element_set_no": 999,
        "meta_rev_at_epoch": 62436,
        "meta_bstar": 0.00022216854,
        "meta_mean_motion_dot": 8.82e-06,
        "meta_mean_motion_ddot": 0,
        "tle_line1": "1 35883U 93036ATW 25350.19555312  .00000882  00000+0  22217-3 0  9998",
        "tle_line2": "2 35883  74.0253  63.5249 0083502 192.1269 197.0315 14.50615193624369"
      },
      "geometry": {
        "type": "Point",
        "coordinates": [
          -134.2549077246181,
          11.045535037470243
        ]
      }
    },
    {
      "type": "Feature",
      "properties": {
        "norad_id": 35884,
        "name": "COSMOS 2251 DEB",
        "group": "cosmos-2251-debris",
        "lat": -34.74945734865817,
        "lon": -55.77080370879223,
        "alt_km": 867.5229782325114,
        "timestamp": "2025-12-23T22:42:33.382577+00:00",
        "meta_object_name": "COSMOS 2251 DEB",
        "meta_object_id": "1993-036ATX",
        "meta_epoch": "2025-12-23T04:21:24.693984",
        "meta_mean_motion": 14.25720371,
        "meta_eccentricity": 0.01085787,
        "meta_inclination": 73.9917,
        "meta_ra_of_asc_node": 317.1007,
        "meta_arg_of_pericenter": 101.1734,
        "meta_mean_anomaly": 260.1642,
        "meta_ephemeris_type": 0,
        "meta_classification_type": "U",
        "meta_norad_cat_id": 35884,
        "meta_element_set_no": 999,
        "meta_rev_at_epoch": 22506,
        "meta_bstar": 0.0013065465,
        "meta_mean_motion_dot": 3.275e-05,
        "meta_mean_motion_ddot": 0,
        "tle_line1": "1 35884U 93036ATX 25357.18153581  .00003275  00000+0  13065-2 0  9996",
        "tle_line2": "2 35884  73.9917 317.1007 0108578 101.1734 260.1642 14.25720371225069"
      },
      "geometry": {
        "type": "Point",
        "coordinates": [
          -55.77080370879223,
          -34.74945734865817
        ]
      }
    },
    {
      "type": "Feature",
      "properties": {
        "norad_id": 35885,
        "name": "COSMOS 2251 DEB",
        "group": "cosmos-2251-debris",
        "lat": -49.08369706412027,
        "lon": 113.45709101116425,
        "alt_km": 781.7260934772657,
        "timestamp": "2025-12-23T22:42:33.382587+00:00",
        "meta_object_name": "COSMOS 2251 DEB",
        "meta_object_id": "1993-036ATY",
        "meta_epoch": "2025-12-23T01:35:28.135968",
        "meta_mean_motion": 14.37538947,
        "meta_eccentricity": 0.00237371,
        "meta_inclination": 74.0286,
        "meta_ra_of_asc_node": 275.7818,
        "meta_arg_of_pericenter": 354.0734,
        "meta_mean_anomaly": 6.0135,
        "meta_ephemeris_type": 0,
        "meta_classification_type": "U",
        "meta_norad_cat_id": 35885,
        "meta_element_set_no": 999,
        "meta_rev_at_epoch": 65164,
        "meta_bstar": 0.00028396743,
        "meta_mean_motion_dot": 8.27e-06,
        "meta_mean_motion_ddot": 0,
        "tle_line1": "1 35885U 93036ATY 25357.06629787  .00000827  00000+0  28397-3 0  9995",
        "tle_line2": "2 35885  74.0286 275.7818 0023737 354.0734   6.0135 14.37538947651642"
      },
      "geometry": {
        "type": "Point",
        "coordinates": [
          113.45709101116425,
          -49.08369706412027
        ]
      }
    },
    {
      "type": "Feature",
      "properties": {
        "norad_id": 35888,
        "name": "COSMOS 2251 DEB",
        "group": "cosmos-2251-debris",
        "lat": -52.64288224269207,
        "lon": -46.69281428174427,
        "alt_km": 736.9520274158858,
        "timestamp": "2025-12-23T22:42:33.382597+00:00",
        "meta_object_name": "COSMOS 2251 DEB",
        "meta_object_id": "1993-036AUB",
        "meta_epoch": "2025-12-23T04:51:21.809664",
        "meta_mean_motion": 14.58352847,
        "meta_eccentricity": 0.00479955,
        "meta_inclination": 74.0338,
        "meta_ra_of_asc_node": 336.7494,
        "meta_arg_of_pericenter": 105.6018,
        "meta_mean_anomaly": 255.0451,
        "meta_ephemeris_type": 0,
        "meta_classification_type": "U",
        "meta_norad_cat_id": 35888,
        "meta_element_set_no": 999,
        "meta_rev_at_epoch": 86426,
        "meta_bstar": 0.00040405486,
        "meta_mean_motion_dot": 1.871e-05,
        "meta_mean_motion_ddot": 0,
        "tle_line1": "1 35888U 93036AUB 25357.20233576  .00001871  00000+0  40405-3 0  9995",
        "tle_line2": "2 35888  74.0338 336.7494 0047995 105.6018 255.0451 14.58352847864265"
      },
      "geometry": {
        "type": "Point",
        "coordinates": [
          -46.69281428174427,
          -52.64288224269207
        ]
      }
    },
    {
      "type": "Feature",
      "properties": {
        "norad_id": 35890,
        "name": "COSMOS 2251 DEB",
        "group": "cosmos-2251-debris",
        "lat": -42.86196132072313,
        "lon": -154.2375696000943,
        "alt_km": 673.5974546625894,
        "timestamp": "2025-12-23T22:42:33.382606+00:00",
        "meta_object_name": "COSMOS 2251 DEB",
        "meta_object_id": "1993-036AUD",
        "meta_epoch": "2025-12-21T00:05:00.914784",
        "meta_mean_motion": 14.57585084,
        "meta_eccentricity": 0.00541447,
        "meta_inclination": 73.9362,
        "meta_ra_of_asc_node": 226.8978,
        "meta_arg_of_pericenter": 350.2956,
        "meta_mean_anomaly": 9.7156,
        "meta_ephemeris_type": 0,
        "meta_classification_type": "U",
        "meta_norad_cat_id": 35890,
        "meta_element_set_no": 999,
        "meta_rev_at_epoch": 65271,
        "meta_bstar": 0.0010880234,
        "meta_mean_motion_dot": 5.027e-05,
        "meta_mean_motion_ddot": 0,
        "tle_line1": "1 35890U 93036AUD 25355.00348281  .00005027  00000+0  10880-2 0  9994",
        "tle_line2": "2 35890  73.9362 226.8978 0054144 350.2956   9.7156 14.57585084652713"
      },
      "geometry": {
        "type": "Point",
        "coordinates": [
          -154.2375696000943,
          -42.86196132072313
        ]
      }
    }
  ]
}